OBJECT_NAME,OBJECT_ID,EPOCH,MEAN_MOTION,ECCENTRICITY,INCLINATION,RA_OF_ASC_NODE,ARG_OF_PERICENTER,MEAN_ANOMALY,EPHEMERIS_TYPE,CLASSIFICATION_TYPE,NORAD_CAT_ID,ELEMENT_SET_NO,REV_AT_EPOCH,BSTAR,MEAN_MOTION_DOT,MEAN_MOTION_DDOT
STARLINK-31313,2024-041Q,2026-06-01T04:37:04.107360,15.27575083,.0002281,43.0047,199.0029,270.6707,89.3883,0,U,59088,999,12704,.16683443E-3,.4331E-4,0
STARLINK-31307,2024-041R,2026-06-01T04:31:30.580032,15.27577913,.0001361,43.0022,198.9753,264.9416,95.1281,0,U,59089,999,12709,.30983103E-4,.59E-5,0
STARLINK-31316,2024-041S,2026-06-05T15:19:05.647584,15.27578120,.0001491,43.0041,127.2016,271.3643,88.7038,0,U,59090,999,12820,.21607E-4,.332E-5,0
STARLINK-31310,2024-041U,2026-06-05T08:29:58.771680,15.27576761,.0000768,43.0000,176.0470,273.0467,87.0297,0,U,59092,999,12767,.12707E-4,.88E-6,0
STARLINK-31343,2024-041V,2026-06-05T08:11:27.494016,15.27538500,.0001589,43.0017,175.9573,283.8406,76.2269,0,U,59093,999,12772,-.53393E-3,-.14907E-3,0
STARLINK-31295,2024-041X,2026-06-01T11:04:47.220960,15.27577984,.00014761,43.0019,197.5751,274.6286,85.4397,0,U,59095,999,12708,.7446808E-4,.1787E-4,0
STARLINK-31291,2024-041Y,2026-06-05T07:36:19.264896,15.27583438,.0001315,43.0060,175.7750,281.3521,78.7183,0,U,59096,999,12767,.87329E-4,.2142E-4,0
HORACIO,2024-043A,2026-06-05T19:14:44.420064,14.98483908,.0012256,97.8518,288.5074,61.0581,299.1869,0,U,59098,999,12296,.15402E-3,.1783E-4,0
MUSAT-2,2024-043B,2026-06-05T09:11:11.531040,15.08452385,.0007366,97.8600,294.7595,25.5004,334.6586,0,U,59099,999,12331,.41701E-3,.6433E-4,0
ICEYE-X38,2024-043C,2026-06-05T19:21:55.944000,15.12748295,.0003885,97.8397,300.2426,114.4500,245.7135,0,U,59100,999,10995,.35056E-3,.6078E-4,0
ICEYE-X37,2024-043E,2026-06-05T18:04:32.890080,15.06033003,.0016264,97.8300,293.5761,52.3737,307.8962,0,U,59102,999,12336,.2602E-3,.3741E-4,0
ICEYE-X36,2024-043F,2026-06-05T16:42:16.254144,15.06776761,.000594,97.8361,294.5668,15.3320,344.8086,0,U,59103,999,12341,.27173E-3,.398E-4,0
PE2_FLT2  (TYVAK-0262),2024-043G,2026-06-05T16:36:39.473856,14.97157924,.0007178,97.8377,287.3372,85.6291,274.5751,0,U,59104,999,12293,.26375E-3,.2989E-4,0
PE2_FLT1 (TYVAK-0261),2024-043H,2026-06-05T15:00:33.378912,14.97150064,.0007109,97.8364,287.2377,82.1589,278.0440,0,U,59105,999,12292,.26308E-3,.2981E-4,0
RROCI-2,2024-043J,2026-06-05T07:28:34.876128,14.99862858,.0010986,97.8440,288.9721,62.9387,297.2956,0,U,59106,999,12298,.25705E-3,.3127E-4,0
BRO-13,2024-043K,2026-06-05T19:01:59.869920,14.96572111,.0010052,97.8487,287.7769,44.3129,315.8895,0,U,59107,999,12291,.12596E-3,.1375E-4,0
BRO-12,2024-043L,2026-06-05T18:59:04.967808,14.96816907,.0009322,97.8474,287.9357,40.7271,319.4645,0,U,59108,999,12293,.15023E-3,.1662E-4,0
SONATE-2,2024-043Q,2026-06-05T09:17:04.658208,15.57809925,.0006708,97.5534,306.0669,233.9854,126.0780,0,U,59112,999,12605,.50424E-3,.37545E-3,0
CONTECSAT-1,2024-043V,2026-06-05T19:46:16.381344,15.36421866,.0008868,97.5636,297.5237,275.6525,84.3707,0,U,59117,999,12550,.29638E-3,.1046E-3,0
TIGER-8,2024-043Y,2026-06-05T08:42:51.988608,15.44463467,.0006291,97.5537,304.5286,239.5557,120.5070,0,U,59120,999,12596,.19743E-3,.9053E-4,0
LYNK TOWER 5,2024-043Z,2026-06-05T18:06:42.852096,15.30588639,.0009584,97.5627,294.0376,290.4128,69.6083,0,U,59121,999,12529,.2147E-3,.6277E-4,0
NUSAT-44 (MARIA MITCHELL),2024-043AA,2026-06-05T19:54:41.517216,15.29795400,.0005705,97.5442,296.9218,272.9049,87.1538,0,U,59122,999,12553,.41859E-3,.12013E-3,0
LYNK TOWER 6,2024-043AB,2026-06-05T07:32:22.534080,15.31040265,.0008621,97.5589,293.0858,288.4951,71.5352,0,U,59123,999,12521,.18196E-3,.5381E-4,0
VSP ROSE,2024-043AC,2026-06-05T20:18:17.434368,15.28580426,.0009261,97.5605,293.0655,289.6129,70.4110,0,U,59124,999,12525,.17185E-3,.4704E-4,0
TRANSPORTER-10 OBJECT AD,2024-043AD,2026-06-05T15:54:55.592352,15.35850848,.000776,97.5632,297.3484,273.5142,86.5213,0,U,59125,999,12549,.25403E-3,.8786E-4,0
YAM-6,2024-043AE,2026-06-05T15:49:48.031680,15.36964062,.0006877,97.5554,297.4691,268.9263,91.1193,0,U,59126,999,12554,.26314E-3,.9436E-4,0
JACKAL X-1L-001,2024-043AF,2026-06-05T16:01:38.447040,15.44160464,.0005782,97.5577,301.2078,254.5337,105.5272,0,U,59127,999,12577,.37088E-3,.16928E-3,0
TRANSPORTER-10 OBJECT AG,2024-043AG,2026-06-05T08:26:22.693056,15.31974264,.0008335,97.5638,294.7984,282.6778,77.3531,0,U,59128,999,12530,.19518E-3,.5949E-4,0
APEX ARIES 1,2024-043AH,2026-06-05T16:38:50.121888,15.55207252,.0004768,97.5470,306.2806,236.4758,123.6040,0,U,59129,999,12613,.41897E-3,.28267E-3,0
GHOST-5,2024-043AJ,2026-06-05T08:51:00.147744,15.42596481,.0006701,97.5585,300.4132,256.7215,103.3285,0,U,59130,999,12569,.28896E-3,.12487E-3,0
MESON-1,2024-043AK,2026-06-05T09:05:45.542112,15.30997659,.0008653,97.5637,294.3023,283.9651,76.0627,0,U,59131,999,12527,.18507E-3,.5467E-4,0
LIZZIESAT-1 (LS-1),2024-043AL,2026-06-05T16:47:02.105952,15.27380440,.0009256,97.5629,292.3506,287.9166,72.1063,0,U,59132,999,12518,.14059E-3,.3695E-4,0
GHOST-4,2024-043AM,2026-06-05T09:02:28.082688,15.43027916,.0007068,97.5602,300.8833,254.8376,105.2090,0,U,59133,999,12571,.2855E-3,.12518E-3,0
JACKAL X-1L-002,2024-043AN,2026-06-05T16:51:12.125952,15.45818520,.0006295,97.5568,302.1850,244.3956,115.6642,0,U,59134,999,12584,.36269E-3,.17517E-3,0
VSP RF A1,2024-043AP,2026-06-05T10:08:48.300864,15.26276618,.0006887,97.5413,292.7028,279.4622,80.5838,0,U,59135,999,12519,.3222E-4,.76E-5,0
VSP RF C1,2024-043AQ,2026-06-05T18:04:29.467776,15.30240635,.0008506,97.5597,294.4487,275.3560,84.6709,0,U,59136,999,12533,.17368E-6,-.74E-6,0
VSP RF B1,2024-043AR,2026-06-05T10:05:55.082688,15.27058357,.0008496,97.5605,293.2313,278.0488,81.9787,0,U,59137,999,12522,.42268E-4,.1046E-4,0
TIGER-7,2024-043AV,2026-06-05T08:55:49.033056,15.48308949,.0005339,97.5476,306.8267,202.5189,157.5827,0,U,59141,999,12614,.26916E-3,.14134E-3,0
TRANSPORTER-10 OBJECT AW,2024-043AW,2026-06-01T09:46:11.205696,16.04452900,.00080967,97.5312,311.8790,250.1178,109.9230,0,U,59142,999,12608,.92176945E-3,.605966E-2,.17760844E-3
LEMUR-2-JOHNNYTRUONG,2024-043BA,2026-06-05T16:02:31.077600,15.59585052,.0004372,97.5379,307.6665,211.8335,148.2658,0,U,59146,999,12624,.49113E-3,.39077E-3,0
HAMMER,2024-043BC,2026-06-05T20:27:21.859776,15.50257457,.0006347,97.5442,305.0678,223.9783,136.0964,0,U,59148,999,12605,.10252E-2,.58268E-3,0
STARLINK-31312,2024-044A,2026-06-05T01:34:03.667008,15.27578375,.00012041,43.0023,282.8774,262.6370,97.4345,0,U,59152,999,12754,.30466634E-4,.576E-5,0
STARLINK-31308,2024-044B,2026-06-05T02:08:32.852832,15.27583304,.00013083,43.0025,286.6073,221.1891,138.8862,0,U,59153,999,12751,.89231117E-4,.2194E-4,0
STARLINK-31270,2024-044C,2026-06-05T19:47:03.261120,15.27544087,.0001675,43.0042,329.3801,263.5494,96.5167,0,U,59154,999,12707,.28512E-3,.7583E-4,0
STARLINK-31341,2024-044D,2026-06-05T04:25:10.018272,15.27573856,.00008189,43.0023,336.6180,279.8465,80.2294,0,U,59155,999,12690,.1819277E-5,-.212E-5,0
STARLINK-31338,2024-044E,2026-06-05T15:18:44.001792,15.27576304,.0002554,43.0031,334.0025,267.5570,92.4989,0,U,59156,999,12697,.20847E-4,.311E-5,0
STARLINK-31334,2024-044F,2026-06-05T13:33:26.550432,15.27576950,.0002927,43.0036,334.3140,243.7258,116.3293,0,U,59157,999,12696,.45544E-4,.991E-5,0
STARLINK-31297,2024-044G,2026-06-05T18:18:27.832032,15.27564934,.0001465,43.0024,329.7757,273.9562,86.1122,0,U,59158,999,12706,.10021E-3,.2495E-4,0
STARLINK-31182,2024-044H,2026-06-05T04:51:33.730272,15.27581605,.0000717,43.0033,332.4496,271.4160,88.6610,0,U,59159,999,12698,.4553E-4,.991E-5,0
STARLINK-31327,2024-044J,2026-06-05T18:22:09.942240,15.27593582,.0001544,43.0030,329.7957,274.1321,85.9354,0,U,59160,999,12706,.13104E-3,.3347E-4,0
STARLINK-31256,2024-044K,2026-06-05T19:04:30.650880,15.27586648,.0001411,43.0019,329.1526,265.8647,94.2043,0,U,59161,999,12707,.18632E-3,.4869E-4,0
STARLINK-31272,2024-044L,2026-06-05T05:02:39.775776,15.27570584,.0001566,43.0020,332.5095,276.4800,83.5873,0,U,59162,999,12695,-.2391E-4,-.92E-5,0
STARLINK-31278,2024-044M,2026-06-05T05:08:12.695712,15.27584626,.0001281,43.0049,332.5383,279.7370,80.3337,0,U,59163,999,12695,.52128E-4,.1173E-4,0
STARLINK-31309,2024-044N,2026-06-05T11:30:23.139072,15.27565757,.0001815,43.0040,331.0859,256.5442,103.5208,0,U,59164,999,12702,-.48945E-4,-.1608E-4,0
STARLINK-31325,2024-044P,2026-06-05T05:17:28.194144,15.27578180,.0000714,43.0005,332.5876,266.3067,93.7703,0,U,59165,999,12695,.1146E-3,.2893E-4,0
STARLINK-31342,2024-044Q,2026-06-05T19:30:23.080896,15.27559081,.0001006,43.0045,329.2894,290.2996,69.7747,0,U,59166,999,12707,-.1153E-3,-.3431E-4,0
STARLINK-31298,2024-044R,2026-06-05T14:53:30.489792,15.27567564,.0000664,43.0018,330.4252,242.6357,117.4427,0,U,59167,999,12701,-.24362E-4,-.932E-5,0
STARLINK-31322,2024-044S,2026-06-05T04:31:25.124736,15.27573061,.0001152,43.0030,333.1972,271.9995,88.0725,0,U,59168,999,12697,.51051E-5,-.122E-5,0
STARLINK-31329,2024-044T,2026-06-05T15:19:25.579200,15.27569049,.0001192,43.0031,330.5596,263.7715,96.3001,0,U,59169,999,12701,-.28358E-4,-.1042E-4,0
STARLINK-31340,2024-044U,2026-06-05T15:19:15.509280,15.27664080,.0001201,43.0011,290.7891,252.2253,107.8467,0,U,59170,999,12747,.60163E-3,.16372E-3,0
STARLINK-31344,2024-044V,2026-06-05T04:25:51.670848,15.27577090,.00010173,43.0040,333.1710,294.0487,66.0258,0,U,59171,999,12697,-.1870926E-5,-.313E-5,0
STARLINK-31348,2024-044W,2026-06-05T02:10:24.214656,15.27656816,.00008452,43.0012,286.6150,64.4585,295.6354,0,U,59172,999,12747,.98791464E-3,.27087E-3,0
STARLINK-31289,2024-044X,2026-06-05T19:41:29.450400,15.27595035,.0001573,43.0056,329.3482,277.6208,82.4465,0,U,59173,999,12707,.83456E-4,.2036E-4,0
STARLINK-31283,2024-044Y,2026-06-05T20:00:04.000032,15.27549609,.0001605,43.0027,282.3264,277.1416,255.2024,0,U,59174,999,590,.23642E-2,.65314E-3,0
EXO-0,2023-174DK,2026-06-05T11:07:42.263040,15.34476975,.0008571,97.3816,236.6114,202.9271,157.1590,0,U,59175,999,14324,.2689E-3,.8911E-4,0
